NORAD_CAT_ID,OBJECT_NAME,OBJECT_TYPE,EPOCH,MEAN_MOTION,ECCENTRICITY,INCLINATION,RA_OF_ASC_NODE,ARG_OF_PERICENTER,MEAN_ANOMALY,BSTAR,MEAN_MOTION_DOT,MEAN_MOTION_DDOT,TLE_LINE0,TLE_LINE1,TLE_LINE2,SEMIMAJOR_AXIS,PERIOD,APOGEE,PERIGEE,DECAYED
53029.0,STARLINK-4143,PAYLOAD,2022-08-15 22:00:00,15.73164873,0.0002288,53.217,184.7255,30.8877,73.5557,0.0003348,0.0004656,0.0,0 STARLINK-4143,1 53029U 22076AV  22227.91667824  .00046560  00000-0  33480-3 0  9996,2 53029  53.2170 184.7255 0002288  30.8877  73.5557 15.73164873  1305,6727.995,91.535,351.4,348.321,0.0
53029.0,STARLINK-4143,PAYLOAD,2022-08-16 14:00:01,15.73239272,0.0002376999999999,53.2168,181.4273,28.7886,253.4966,0.00014635,0.00020003,0.0,0 STARLINK-4143,1 53029U 22076AV  22228.58334491  .00020003  00000-0  14635-3 0  9996,2 53029  53.2168 181.4273 0002377  28.7886 253.4966 15.73239272  1300,6727.783,91.531,351.247,348.0490000000001,0.0
53029.0,STARLINK-4143,PAYLOAD,2022-08-16 22:00:00,15.73292724,0.0002217,53.2168,179.7775,28.1862,343.0646,-0.00058396,-0.00082115,0.0,0 STARLINK-4143,1 53029U 22076AV  22228.91667824 -.00082115  00000-0 -58396-3 0  9998,2 53029  53.2168 179.7775 0002217  28.1862 343.0646 15.73292724  6855,6727.630999999999,91.528,350.987,348.004,0.0
53029.0,STARLINK-4143,PAYLOAD,2022-08-17 14:00:01,15.73197239,0.0002142,53.2162,176.4788,20.5189,168.6597,0.00013906,0.00018938,0.0,0 STARLINK-4143,1 53029U 22076AV  22229.58334491  .00018938  00000-0  13906-3 0  9991,2 53029  53.2162 176.4788 0002142  20.5189 168.6597 15.73197239  1308,6727.903,91.533,351.209,348.327,0.0
53029.0,STARLINK-4143,PAYLOAD,2022-08-17 16:00:00,15.73182532,0.0002082,53.2161,176.06599999999997,21.6354,279.7787,0.00044492,0.00062241,0.0,0 STARLINK-4143,1 53029U 22076AV  22229.66667824  .00062241  00000-0  44492-3 0  9999,2 53029  53.2161 176.0660 0002082  21.6354 279.7787 15.73182532  6974,6727.945,91.534,351.211,348.409,0.0
53029.0,STARLINK-4143,PAYLOAD,2022-08-18 08:00:01,15.73209426,0.0002366,53.216,172.7688,25.2679,94.0485,0.00076769,0.00108573,0.0,0 STARLINK-4143,1 53029U 22076AV  22230.33334491  .00108573  00000-0  76769-3 0  9997,2 53029  53.2160 172.7688 0002366  25.2679  94.0485 15.73209426  7078,6727.868,91.533,351.325,348.141,0.0
53029.0,STARLINK-4143,PAYLOAD,2022-08-18 14:00:01,15.73279553,0.0002176,53.2162,171.5301,25.4769,70.5574,-0.00038896,-0.00055045,0.0,0 STARLINK-4143,1 53029U 22076AV  22230.58334491 -.00055045  00000-0 -38896-3 0  9990,2 53029  53.2162 171.5301 0002176  25.4769  70.5574 15.73279553  1306,6727.668000000002,91.529,350.997,348.069,0.0
53029.0,STARLINK-4143,PAYLOAD,2022-08-18 22:00:00,15.73268772,0.0002123,53.2161,169.8806,27.9694,157.0604,-0.00059048,-0.00082931,0.0,0 STARLINK-4143,1 53029U 22076AV  22230.91667824 -.00082931  00000-0 -59048-3 0  9992,2 53029  53.2161 169.8806 0002123  27.9694 157.0604 15.73268772  7167,6727.699000000001,91.529,350.992,348.136,0.0
53029.0,STARLINK-4143,PAYLOAD,2022-08-19 14:00:01,15.73126196,0.0001925,53.2154,166.5814,19.6409,343.2911,0.00027492,0.00038017,0.0,0 STARLINK-4143,1 53029U 22076AV  22231.58334491  .00038017  00000-0  27492-3 0  9999,2 53029  53.2154 166.5814 0001925  19.6409 343.2911 15.73126196  1306,6728.106,91.537,351.266,348.675,0.0
53029.0,STARLINK-4143,PAYLOAD,2022-08-19 22:00:00,15.73169368,0.0001955999999999,53.2157,164.9322,22.1614,69.6042,0.00016571,0.00022669,0.0,0 STARLINK-4143,1 53029U 22076AV  22231.91667824  .00022669  00000-0  16571-3 0  9997,2 53029  53.2157 164.9322 0001956  22.1614  69.6042 15.73169368  1308,6727.983,91.535,351.164,348.532,0.0
53029.0,STARLINK-4143,PAYLOAD,2022-08-20 08:00:01,15.73141967,0.0002271,53.2155,162.8719,21.7758,271.0927,0.00011067,0.00014901,0.0,0 STARLINK-4143,1 53029U 22076AV  22232.33334491  .00014901  00000-0  11067-3 0  9990,2 53029  53.2155 162.8719 0002271  21.7758 271.0927 15.73141967  7399,6728.061,91.537,351.454,348.398,0.0
53029.0,STARLINK-4143,PAYLOAD,2022-08-20 14:00:01,15.73133141,0.0002109,53.2158,161.6333,26.4962,243.0246,0.00040103,0.00055878,0.0,0 STARLINK-4143,1 53029U 22076AV  22232.58334491  .00055878  00000-0  40103-3 0  9998,2 53029  53.2158 161.6333 0002109  26.4962 243.0246 15.73133141  1303,6728.0859999999975,91.537,351.37,348.532,0.0
53029.0,STARLINK-4143,PAYLOAD,2022-08-20 22:00:00,15.73205479,0.0002105,53.2157,159.9843,28.6532,329.7456,0.00012469,0.00016919,0.0,0 STARLINK-4143,1 53029U 22076AV  22232.91667824  .00016919  00000-0  12469-3 0  9991,2 53029  53.2157 159.9843 0002105  28.6532 329.7456 15.73205479  1300,6727.88,91.533,351.161,348.32800000000015,0.0
53029.0,STARLINK-4143,PAYLOAD,2022-08-21 06:00:00,15.73178061,0.0002299,53.2151,158.3364,25.7235,61.5859,0.00052307,0.00073368,0.0,0 STARLINK-4143,1 53029U 22076AV  22233.25001157  .00073368  00000-0  52307-3 0  9996,2 53029  53.2151 158.3364 0002299  25.7235  61.5859 15.73178061  7532,6727.958000000001,91.534,351.369,348.276,0.0
53029.0,STARLINK-4143,PAYLOAD,2022-08-21 14:00:01,15.73202255,0.0001983,53.2152,156.6848,23.9189,152.338,-7.6201e-05,-0.00011303,0.0,0 STARLINK-4143,1 53029U 22076AV  22233.58334491 -.00011303  00000-0 -76201-4 0  9995,2 53029  53.2152 156.6848 0001983  23.9189 152.3380 15.73202255  1308,6727.889,91.533,351.088,348.42,0.0
53029.0,STARLINK-4143,PAYLOAD,2022-08-21 22:00:00,15.7321782,0.0001965,53.2155,155.0359,24.8565,240.3258,0.00011003,0.00014861,0.0,0 STARLINK-4143,1 53029U 22076AV  22233.91667824  .00014861  00000-0  11003-3 0  9999,2 53029  53.2155 155.0359 0001965  24.8565 240.3258 15.73217820  1305,6727.844,91.532,351.031,348.38699999999994,0.0
53029.0,STARLINK-4143,PAYLOAD,2022-08-22 06:00:00,15.73207546,0.000225,53.2155,153.388,22.1058,332.0127,0.00043883,0.00061442,0.0,0 STARLINK-4143,1 53029U 22076AV  22234.25001157  .00061442  00000-0  43883-3 0  9996,2 53029  53.2155 153.3880 0002250  22.1058 332.0127 15.73207546  7697,6727.874,91.533,351.25199999999984,348.225,0.0
53029.0,STARLINK-4143,PAYLOAD,2022-08-22 12:00:00,15.73260661,0.0002085999999999,53.2158,152.1491,27.2083,303.6287,-0.00057151,-0.00080283,0.0,0 STARLINK-4143,1 53029U 22076AV  22234.50001157 -.00080283  00000-0 -57151-3 0  9993,2 53029  53.2158 152.1491 0002086  27.2083 303.6287 15.73260661  7739,6727.722,91.53,350.991,348.184,0.0
53029.0,STARLINK-4143,PAYLOAD,2022-08-22 22:00:00,15.73231295,0.0002186,53.2158,150.0877,32.2804,139.7551,6.358399999999999e-05,8.323e-05,0.0,0 STARLINK-4143,1 53029U 22076AV  22234.91667824  .00008323  00000-0  63584-4 0  9998,2 53029  53.2158 150.0877 0002186  32.2804 139.7551 15.73231295  7791,6727.806,91.531,351.142,348.2,0.0
53029.0,STARLINK-4143,PAYLOAD,2022-08-23 14:00:01,15.73172871,0.0001943,53.2153,146.7878,28.7009,321.2624,0.00036892,0.00051414,0.0,0 STARLINK-4143,1 53029U 22076AV  22235.58334491  .00051414  00000-0  36892-3 0  9993,2 53029  53.2153 146.7878 0001943  28.7009 321.2624 15.73172871  7902,6727.973000000001,91.535,351.145,348.53,0.0
53029.0,STARLINK-4143,PAYLOAD,2022-08-23 22:00:01,15.73241317,0.0002008999999999,53.2158,145.1392,26.1812,52.7577,-0.00030915,-0.00043863,0.0,0 STARLINK-4143,1 53029U 22076AV  22235.91668981 -.00043863  00000-0 -30915-3 0  9995,2 53029  53.2158 145.1392 0002009  26.1812  52.7577 15.73241317  1302,6727.776999999999,91.531,350.994,348.291,0.0
53029.0,STARLINK-4143,PAYLOAD,2022-08-24 06:00:00,15.73173775,0.0002121999999999,53.2157,143.491,18.8854,148.9372,0.0001337,0.00018164,0.0,0 STARLINK-4143,1 53029U 22076AV  22236.25001157  .00018164  00000-0  13370-3 0  9999,2 53029  53.2157 143.4910 0002122  18.8854 148.9372 15.73173775  8005,6727.97,91.535,351.26300000000015,348.407,0.0
53029.0,STARLINK-4143,PAYLOAD,2022-08-24 14:00:01,15.73239447,0.0002029,53.2165,141.8331,28.8026,227.9817,-2.9767e-05,-4.804e-05,0.0,0 STARLINK-4143,1 53029U 22076AV  22236.58334491 -.00004804  00000-0 -29767-4 0  9991,2 53029  53.2165 141.8331 0002029  28.8026 227.9817 15.73239447  1308,6727.783,91.531,351.01300000000015,348.283,0.0
53029.0,STARLINK-4143,PAYLOAD,2022-08-24 16:00:00,15.73251833,0.0002065,53.216,141.4267,31.57,337.4561,-0.0002325,-0.00033198,0.0,0 STARLINK-4143,1 53029U 22076AV  22236.66667824 -.00033198  00000-0 -23250-3 0  9997,2 53029  53.2160 141.4267 0002065  31.5700 337.4561 15.73251833  8074,6727.746999999999,91.53,351.00199999999984,348.223,0.0
53029.0,STARLINK-4143,PAYLOAD,2022-08-24 22:00:00,15.73223538,0.0002247,53.2159,140.191,33.3858,312.3816,-0.00011553,-0.00016821,0.0,0 STARLINK-4143,1 53029U 22076AV  22236.91667824 -.00016821  00000-0 -11553-3 0  9992,2 53029  53.2159 140.1910 0002247  33.3858 312.3816 15.73223538  1304,6727.828,91.532,351.205,348.181,0.0
53029.0,STARLINK-4143,PAYLOAD,2022-08-25 14:00:01,15.7316146,0.0001942,53.2154,136.8909,30.7775,132.9113,0.00050992,0.00071438,0.0,0 STARLINK-4143,1 53029U 22076AV  22237.58334491  .00071438  00000-0  50992-3 0  9990,2 53029  53.2154 136.8909 0001942  30.7775 132.9113 15.73161460  8217,6728.005,91.535,351.177,348.56300000000016,0.0
53029.0,STARLINK-4143,PAYLOAD,2022-08-25 22:00:00,15.73239304,0.0002019,53.2157,135.2429,28.6809,223.9146,-0.00037812,-0.00053445,0.0,0 STARLINK-4143,1 53029U 22076AV  22237.91667824 -.00053445  00000-0 -37812-3 0  9992,2 53029  53.2157 135.2429 0002019  28.6809 223.9146 15.73239304  1303,6727.783,91.531,351.006,348.29,0.0
53029.0,STARLINK-4143,PAYLOAD,2022-08-26 06:00:00,15.73224463,0.0002148,53.2159,133.5882,24.9967,316.5267,9.636e-05,0.00012938,0.0,0 STARLINK-4143,1 53029U 22076AV  22238.25001157  .00012938  00000-0  96360-4 0  9995,2 53029  53.2159 133.5882 0002148  24.9967 316.5267 15.73224463  8328,6727.825,91.532,351.136,348.245,0.0
53029.0,STARLINK-4143,PAYLOAD,2022-08-26 14:00:01,15.73182816,0.0001891,53.2159,131.9424,26.4773,44.0847,0.00015912,0.00021753,0.0,0 STARLINK-4143,1 53029U 22076AV  22238.58335648  .00021753  00000-0  15912-3 0  9994,2 53029  53.2159 131.9424 0001891  26.4773  44.0847 15.73182816  1301,6727.944,91.534,351.081,348.537,0.0
